[{"OBJECT_NAME":"STARLINK-35340","OBJECT_ID":"2025-232T","EPOCH":"2026-03-09T08:07:22.279584","MEAN_MOTION":15.30199116,"ECCENTRICITY":0.00011731,"INCLINATION":53.1583,"RA_OF_ASC_NODE":105.4085,"ARG_OF_PERICENTER":127.6285,"MEAN_ANOMALY":232.4822,"EPHEMERIS_TYPE":0,"CLASSIFICATION_TYPE":"U","NORAD_CAT_ID":66022,"ELEMENT_SET_NO":999,"REV_AT_EPOCH":2338,"BSTAR":0.00073370048,"MEAN_MOTION_DOT":0.00021433,"MEAN_MOTION_DDOT":0},{"OBJECT_NAME":"CERISE","OBJECT_ID":"1995-033B","EPOCH":"2026-03-09T23:11:27.589056","MEAN_MOTION":15.32047731,"ECCENTRICITY":0.00057118,"INCLINATION":98.325,"RA_OF_ASC_NODE":273.5192,"ARG_OF_PERICENTER":211.8754,"MEAN_ANOMALY":148.214,"EPHEMERIS_TYPE":0,"CLASSIFICATION_TYPE":"U","NORAD_CAT_ID":23606,"ELEMENT_SET_NO":999,"REV_AT_EPOCH":66468,"BSTAR":0.00062940675,"MEAN_MOTION_DOT":0.00019422,"MEAN_MOTION_DDOT":0}]
